{
    "links": {
        "self": "http://www.neowsapp.com/rest/v1/neo/3738549?api_key=iIulBulltgU6a56xZRHN4H3l9WmuAYTsLGpBGhQ2"
    },
    "id": "3738549",
    "neo_reference_id": "3738549",
    "name": "(2015 YQ)",
    "designation": "2015 YQ",
    "nasa_jpl_url": "http://ssd.jpl.nasa.gov/sbdb.cgi?sstr=3738549",
    "absolute_magnitude_h": 24.2,
    "estimated_diameter": {
        "kilometers": {
            "estimated_diameter_min": 0.0384197891,
            "estimated_diameter_max": 0.0859092601
        },
        "meters": {
            "estimated_diameter_min": 38.4197891064,
            "estimated_diameter_max": 85.9092601232
        },
        "miles": {
            "estimated_diameter_min": 0.0238729428,
            "estimated_diameter_max": 0.0533815229
        },
        "feet": {
            "estimated_diameter_min": 126.0491808919,
            "estimated_diameter_max": 281.8545369825
        }
    },
    "is_potentially_hazardous_asteroid": false,
    "close_approach_data": [
        {
            "close_approach_date": "2015-12-11",
            "close_approach_date_full": "2015-Dec-11 11:36",
            "epoch_date_close_approach": 1449833760000,
            "relative_velocity": {
                "kilometers_per_second": "17.4043544979",
                "kilometers_per_hour": "62655.6761925178",
                "miles_per_hour": "38931.8005764008"
            },
            "miss_distance": {
                "astronomical": "0.0208390822",
                "lunar": "8.1064029758",
                "kilometers": "3117482.309874914",
                "miles": "1937113.6822012532"
            },
            "orbiting_body": "Earth"
        }
    ],
    "orbital_data": {
        "orbit_id": "7",
        "orbit_determination_date": "2017-04-06 08:29:44",
        "first_observation_date": "2015-12-17",
        "last_observation_date": "2015-12-21",
        "data_arc_in_days": 4,
        "observations_used": 37,
        "orbit_uncertainty": "8",
        "minimum_orbit_intersection": ".019906",
        "jupiter_tisserand_invariant": "3.619",
        "epoch_osculation": "2457375.5",
        "eccentricity": ".6384842707649542",
        "semi_major_axis": "1.940293175767949",
        "inclination": "4.232890030145149",
        "ascending_node_longitude": "63.64371337168146",
        "orbital_period": "987.1870763242126",
        "perihelion_distance": ".7014465023675329",
        "perihelion_argument": "301.2103423227744",
        "aphelion_distance": "3.179139849168364",
        "perihelion_time": "2457323.808812486535",
        "mean_anomaly": "18.8503556733515",
        "mean_motion": ".3646725211805433",
        "equinox": "J2000",
        "orbit_class": {
            "orbit_class_type": "APO",
            "orbit_class_description": "Near-Earth asteroid orbits which cross the Earth’s orbit similar to that of 1862 Apollo",
            "orbit_class_range": "a (semi-major axis) > 1.0 AU; q (perihelion) < 1.017 AU"
        }
    },
    "is_sentry_object": false
}